{
  "norad_id": 68124,
  "name": "STARLINK-36938",
  "history": [
    {
      "epoch": "2026-03-28T22:00:01.999584Z",
      "apogee_km": 345.28799086625804,
      "perigee_km": 342.9995920392312,
      "latitude_deg": -31.940508405482845,
      "longitude_deg": -102.69598707611821,
      "height_km": 356.97429109402304,
      "semi_major_axis_km": 6722.280791452744,
      "eccentricity": 0.00017021,
      "inclination_deg": 97.2875,
      "raan_deg": 49.0956,
      "arg_perigee_deg": 94.3539,
      "mean_anomaly_deg": 233.7082,
      "mean_motion_rev_day": 15.75171293
    },
    {
      "epoch": "2026-03-29T04:00:01.999584Z",
      "apogee_km": 345.396284480511,
      "perigee_km": 342.9762481046455,
      "latitude_deg": -54.82794287635612,
      "longitude_deg": 173.16360354075948,
      "height_km": 366.6710542494859,
      "semi_major_axis_km": 6722.3232662925775,
      "eccentricity": 0.00018,
      "inclination_deg": 97.2849,
      "raan_deg": 49.3562,
      "arg_perigee_deg": 104.6341,
      "mean_anomaly_deg": 200.1312,
      "mean_motion_rev_day": 15.75156364
    },
    {
      "epoch": "2026-03-30T04:00:01.999584Z",
      "apogee_km": 345.2321057756826,
      "perigee_km": 343.2261517228635,
      "latitude_deg": -31.567412391608446,
      "longitude_deg": -21.644758251698324,
      "height_km": 356.8250472218996,
      "semi_major_axis_km": 6722.366128749272,
      "eccentricity": 0.0001492,
      "inclination_deg": 97.2856,
      "raan_deg": 50.4059,
      "arg_perigee_deg": 85.5778,
      "mean_anomaly_deg": 125.9852,
      "mean_motion_rev_day": 15.75141299
    },
    {
      "epoch": "2026-03-30T06:00:02.000160Z",
      "apogee_km": 345.23001078493235,
      "perigee_km": 343.38752284916245,
      "latitude_deg": -36.153168723637116,
      "longitude_deg": 138.17039515070823,
      "height_km": 358.70121048679914,
      "semi_major_axis_km": 6722.445766817047,
      "eccentricity": 0.00013704,
      "inclination_deg": 97.2858,
      "raan_deg": 50.4934,
      "arg_perigee_deg": 90.6321,
      "mean_anomaly_deg": 233.1694,
      "mean_motion_rev_day": 15.75113309
    },
    {
      "epoch": "2026-03-30T14:00:03.000384Z",
      "apogee_km": 345.13775441230246,
      "perigee_km": 343.0612555559137,
      "latitude_deg": 52.28866277096098,
      "longitude_deg": 3.395347023435284,
      "height_km": 351.7787480828696,
      "semi_major_axis_km": 6722.236504984108,
      "eccentricity": 0.00015445,
      "inclination_deg": 97.2861,
      "raan_deg": 50.845,
      "arg_perigee_deg": 83.7565,
      "mean_anomaly_deg": 329.039,
      "mean_motion_rev_day": 15.75186859
    },
    {
      "epoch": "2026-03-30T22:00:00.999936Z",
      "apogee_km": 345.25183615699825,
      "perigee_km": 343.18538404245373,
      "latitude_deg": 38.139731298429474,
      "longitude_deg": 78.61745966781969,
      "height_km": 349.0307285487004,
      "semi_major_axis_km": 6722.355610099726,
      "eccentricity": 0.0001537,
      "inclination_deg": 97.2855,
      "raan_deg": 51.1942,
      "arg_perigee_deg": 89.283,
      "mean_anomaly_deg": 52.2826,
      "mean_motion_rev_day": 15.75144996
    },
    {
      "epoch": "2026-03-31T18:44:46.862016Z",
      "apogee_km": 344.8819008781793,
      "perigee_km": 342.68786557549356,
      "latitude_deg": -3.3485088344191812e-06,
      "longitude_deg": -58.2484113698098,
      "height_km": 347.07568838184727,
      "semi_major_axis_km": 6721.921883226836,
      "eccentricity": 0.0001632,
      "inclination_deg": 97.2854,
      "raan_deg": 52.1004,
      "arg_perigee_deg": 96.5394,
      "mean_anomaly_deg": 263.6057,
      "mean_motion_rev_day": 15.75297451
    },
    {
      "epoch": "2026-04-01T09:59:34.990080Z",
      "apogee_km": 345.40867541618536,
      "perigee_km": 342.5181722339403,
      "latitude_deg": -7.379498135842086e-05,
      "longitude_deg": 73.09170499492036,
      "height_km": 347.4147822921213,
      "semi_major_axis_km": 6722.1004238250625,
      "eccentricity": 0.000215,
      "inclination_deg": 97.2853,
      "raan_deg": 52.7672,
      "arg_perigee_deg": 101.4283,
      "mean_anomaly_deg": 258.7223,
      "mean_motion_rev_day": 15.75234691
    },
    {
      "epoch": "2026-04-02T21:03:37.370304Z",
      "apogee_km": 344.7554220423899,
      "perigee_km": 342.8146687094504,
      "latitude_deg": -2.4440598264367618e-05,
      "longitude_deg": -92.82498152683314,
      "height_km": 347.4787238516062,
      "semi_major_axis_km": 6721.92204537592,
      "eccentricity": 0.00014436,
      "inclination_deg": 97.2863,
      "raan_deg": 54.3006,
      "arg_perigee_deg": 122.8979,
      "mean_anomaly_deg": 237.2425,
      "mean_motion_rev_day": 15.75297394
    },
    {
      "epoch": "2026-04-03T19:55:49.422432Z",
      "apogee_km": 344.5863607407646,
      "perigee_km": 342.74324268673536,
      "latitude_deg": 3.0067578655553177e-05,
      "longitude_deg": -75.81394375453256,
      "height_km": 346.34657730888694,
      "semi_major_axis_km": 6721.80180171375,
      "eccentricity": 0.0001371,
      "inclination_deg": 97.2868,
      "raan_deg": 55.3011,
      "arg_perigee_deg": 58.2655,
      "mean_anomaly_deg": 301.8744,
      "mean_motion_rev_day": 15.75339664
    },
    {
      "epoch": "2026-04-04T20:19:30.298944Z",
      "apogee_km": 345.25929971229107,
      "perigee_km": 343.1767141311466,
      "latitude_deg": -2.1131168185078347e-05,
      "longitude_deg": -81.66901109603793,
      "height_km": 346.36629349257464,
      "semi_major_axis_km": 6722.355006921718,
      "eccentricity": 0.0001549,
      "inclination_deg": 97.2862,
      "raan_deg": 56.3682,
      "arg_perigee_deg": 11.8244,
      "mean_anomaly_deg": 348.3057,
      "mean_motion_rev_day": 15.75145208
    },
    {
      "epoch": "2026-04-05T14:37:15.024288Z",
      "apogee_km": 345.4923411023319,
      "perigee_km": 341.92035354756354,
      "latitude_deg": -5.326220575676861e-06,
      "longitude_deg": 3.9434500151623526,
      "height_km": 346.4760607871244,
      "semi_major_axis_km": 6721.843347324948,
      "eccentricity": 0.0002657,
      "inclination_deg": 97.2841,
      "raan_deg": 57.1684,
      "arg_perigee_deg": 77.2423,
      "mean_anomaly_deg": 282.9139,
      "mean_motion_rev_day": 15.75325059
    },
    {
      "epoch": "2026-04-07T12:21:38.380320Z",
      "apogee_km": 345.23143807834003,
      "perigee_km": 342.79398659264734,
      "latitude_deg": 1.374683406297926e-05,
      "longitude_deg": 37.96715839431129,
      "height_km": 347.4951122117892,
      "semi_major_axis_km": 6722.149712335494,
      "eccentricity": 0.0001813,
      "inclination_deg": 97.2853,
      "raan_deg": 59.1679,
      "arg_perigee_deg": 105.0674,
      "mean_anomaly_deg": 255.0792,
      "mean_motion_rev_day": 15.75217366
    },
    {
      "epoch": "2026-04-07T19:59:01.912128Z",
      "apogee_km": 344.8269725876362,
      "perigee_km": 342.7781254131014,
      "latitude_deg": -1.886495123799855e-05,
      "longitude_deg": -76.3603614251155,
      "height_km": 347.3673632301591,
      "semi_major_axis_km": 6721.939549000369,
      "eccentricity": 0.0001524,
      "inclination_deg": 97.2862,
      "raan_deg": 59.5015,
      "arg_perigee_deg": 112.8949,
      "mean_anomaly_deg": 247.2477,
      "mean_motion_rev_day": 15.75291241
    },
    {
      "epoch": "2026-04-08T09:42:21.439584Z",
      "apogee_km": 344.6739152295877,
      "perigee_km": 343.1938496626908,
      "latitude_deg": -1.7834304092454135e-05,
      "longitude_deg": 77.84462605323354,
      "height_km": 346.8400820820101,
      "semi_major_axis_km": 6722.070882446139,
      "eccentricity": 0.00011009,
      "inclination_deg": 97.2857,
      "raan_deg": 60.1014,
      "arg_perigee_deg": 69.3908,
      "mean_anomaly_deg": 290.7475,
      "mean_motion_rev_day": 15.75245075
    },
    {
      "epoch": "2026-04-09T20:46:23.137248Z",
      "apogee_km": 344.74816608545825,
      "perigee_km": 343.0179181266194,
      "latitude_deg": -5.7724149839274104e-05,
      "longitude_deg": -88.06980302632205,
      "height_km": 347.27610197848713,
      "semi_major_axis_km": 6722.020042106038,
      "eccentricity": 0.0001287,
      "inclination_deg": 97.2855,
      "raan_deg": 61.6342,
      "arg_perigee_deg": 105.1826,
      "mean_anomaly_deg": 254.9581,
      "mean_motion_rev_day": 15.75262946
    },
    {
      "epoch": "2026-04-10T10:29:41.722080Z",
      "apogee_km": 345.1285304267976,
      "perigee_km": 343.0943780445459,
      "latitude_deg": -7.46189404943343e-05,
      "longitude_deg": 66.13882538956825,
      "height_km": 348.04263649684196,
      "semi_major_axis_km": 6722.2484542356715,
      "eccentricity": 0.0001513,
      "inclination_deg": 97.2855,
      "raan_deg": 62.2338,
      "arg_perigee_deg": 138.7158,
      "mean_anomaly_deg": 221.4221,
      "mean_motion_rev_day": 15.75182659
    },
    {
      "epoch": "2026-04-11T20:02:15.408384Z",
      "apogee_km": 345.75029426712445,
      "perigee_km": 341.84753827413806,
      "latitude_deg": 3.899287213849424e-05,
      "longitude_deg": -76.91270064978914,
      "height_km": 347.8167656517686,
      "semi_major_axis_km": 6721.9359162706305,
      "eccentricity": 0.0002903,
      "inclination_deg": 97.284,
      "raan_deg": 63.7002,
      "arg_perigee_deg": 115.9381,
      "mean_anomaly_deg": 244.2184,
      "mean_motion_rev_day": 15.75292518
    },
    {
      "epoch": "2026-04-13T04:03:20.128608Z",
      "apogee_km": 344.63465456732047,
      "perigee_km": 343.34266201579703,
      "latitude_deg": 6.171821391963843e-05,
      "longitude_deg": 162.90129656803353,
      "height_km": 347.07387338183275,
      "semi_major_axis_km": 6722.1256582915585,
      "eccentricity": 9.61e-05,
      "inclination_deg": 97.2845,
      "raan_deg": 65.0988,
      "arg_perigee_deg": 82.7402,
      "mean_anomaly_deg": 277.3973,
      "mean_motion_rev_day": 15.75225821
    }
  ]
}